NORAD_CAT_ID,OBJECT_NAME,OBJECT_TYPE,EPOCH,MEAN_MOTION,ECCENTRICITY,INCLINATION,RA_OF_ASC_NODE,ARG_OF_PERICENTER,MEAN_ANOMALY,BSTAR,MEAN_MOTION_DOT,MEAN_MOTION_DDOT,TLE_LINE0,TLE_LINE1,TLE_LINE2,SEMIMAJOR_AXIS,PERIOD,APOGEE,PERIGEE,DECAYED
53415.0,STARLINK-4479,PAYLOAD,2023-02-17 09:55:30,15.08821972,0.0001636,53.2165,85.2823,76.4355,283.682,0.0011817,0.0001856,0.0,0 STARLINK-4479,1 53415U 22097AD  23048.41355114  .00018560  00000-0  11817-2 0  9999,2 53415  53.2165  85.2823 0001636  76.4355 283.6820 15.08821972 29649,6917.935,95.439,540.932,538.669,0.0
53415.0,STARLINK-4479,PAYLOAD,2023-02-17 19:27:49,15.08828653,0.0001498,53.2163,83.4985,85.4586,274.6577,0.0009541,0.00014924,0.0,0 STARLINK-4479,1 53415U 22097AD  23048.81099476  .00014924  00000-0  95410-3 0  9991,2 53415  53.2163  83.4985 0001498  85.4586 274.6577 15.08828653 30169,6917.915,95.438,540.816,538.744,0.0
53415.0,STARLINK-4479,PAYLOAD,2023-02-18 08:10:55,15.08840189,0.0001519,53.2158,81.1168,86.5413,273.5753,0.00079415,0.00012374,0.0,0 STARLINK-4479,1 53415U 22097AD  23049.34091605  .00012374  00000-0  79415-3 0  9990,2 53415  53.2158  81.1168 0001519  86.5413 273.5753 15.08840189 29784,6917.88,95.438,540.796,538.694,0.0
53415.0,STARLINK-4479,PAYLOAD,2023-02-18 09:46:18,15.08838623,0.000123,53.2163,80.8219,66.727,293.3851,0.0021859,0.00034671,0.0,0 STARLINK-4479,1 53415U 22097AD  23049.40715879  .00034671  00000-0  21859-2 0  9995,2 53415  53.2163  80.8219 0001230  66.7270 293.3851 15.08838623 30257,6917.885,95.438,540.6,538.899,0.0
53415.0,STARLINK-4479,PAYLOAD,2023-02-19 12:47:50,15.08872966,0.0001736,53.2161,75.7665,84.1535,275.9655,0.00094525,0.00014801,0.0,0 STARLINK-4479,1 53415U 22097AD  23050.53322372  .00014801  00000-0  94525-3 0  9997,2 53415  53.2161  75.7665 0001736  84.1535 275.9655 15.08872966 29964,6917.78,95.435,540.846,538.444,0.0
53415.0,STARLINK-4479,PAYLOAD,2023-02-19 19:09:23,15.08845652,0.0001856,53.2176,74.5769,87.8859,272.2345,-7.4977e-06,-4.08e-06,0.0,0 STARLINK-4479,1 53415U 22097AD  23050.79818879 -.00000408  00000-0 -74977-5 0  9998,2 53415  53.2176  74.5769 0001856  87.8859 272.2345 15.08845652 30009,6917.863,95.437,541.012,538.444,0.0
53415.0,STARLINK-4479,PAYLOAD,2023-02-20 12:38:37,15.08856526,0.0001449,53.2166,71.3057,84.6625,275.4532,0.0012961,0.00020409,0.0,0 STARLINK-4479,1 53415U 22097AD  23051.52682356  .00020409  00000-0  12961-2 0  9992,2 53415  53.2166  71.3057 0001449  84.6625 275.4532 15.08856526 30574,6917.83,95.437,540.697,538.692,0.0
53415.0,STARLINK-4479,PAYLOAD,2023-02-21 06:07:52,15.08852229,0.0001447,53.2164,68.0339,99.0559,261.0597,0.00062819,9.727e-05,0.0,0 STARLINK-4479,1 53415U 22097AD  23052.25546466  .00009727  00000-0  62819-3 0  9992,2 53415  53.2164  68.0339 0001447  99.0559 261.0597 15.08852229 30222,6917.843,95.437,540.709,538.707,0.0
53415.0,STARLINK-4479,PAYLOAD,2023-02-21 12:29:24,15.08861427,0.0001477,53.2171,66.8438,95.4309,264.6851,0.00098324,0.00015404,0.0,0 STARLINK-4479,1 53415U 22097AD  23052.52042232  .00015404  00000-0  98324-3 0  9993,2 53415  53.2171  66.8438 0001477  95.4309 264.6851 15.08861427 30729,6917.815,95.436,540.702,538.658,0.0
53415.0,STARLINK-4479,PAYLOAD,2023-02-22 01:12:29,15.08844555,0.0001808,53.218,64.4649,96.5162,263.6037,0.00076735,0.00011947,0.0,0 STARLINK-4479,1 53415U 22097AD  23053.05034711  .00011947  00000-0  76735-3 0  9995,2 53415  53.2180  64.4649 0001808  96.5162 263.6037 15.08844555 30340,6917.866,95.437,540.982,538.481,0.0
53415.0,STARLINK-4479,PAYLOAD,2023-02-22 12:20:11,15.08850034,0.0001509,53.2173,62.3839,95.2989,264.8175,0.001073,0.00016835,0.0,0 STARLINK-4479,1 53415U 22097AD  23053.51402691  .00016835  00000-0  10730-2 0  9995,2 53415  53.2173  62.3839 0001509  95.2989 264.8175 15.08850034 30874,6917.85,95.437,540.759,538.671,0.0
53415.0,STARLINK-4479,PAYLOAD,2023-02-22 17:06:21,15.08833014,0.0001583,53.2177,61.4914,101.1049,259.0121,0.00020211,2.929e-05,0.0,0 STARLINK-4479,1 53415U 22097AD  23053.71275131  .00002929  00000-0  20211-3 0  9999,2 53415  53.2177  61.4914 0001583 101.1049 259.0121 15.08833014 30447,6917.902,95.438,540.862,538.672,0.0
53415.0,STARLINK-4479,PAYLOAD,2023-02-23 10:35:36,15.08855572,0.0001321,53.2177,58.2213,93.0556,267.0588,0.0015667,0.00024745,0.0,0 STARLINK-4479,1 53415U 22097AD  23054.44138927  .00024745  00000-0  15667-2 0  9999,2 53415  53.2177  58.2213 0001321  93.0556 267.0588 15.08855572 30556,6917.833,95.437,540.612,538.784,0.0
53415.0,STARLINK-4479,PAYLOAD,2023-02-23 16:57:08,15.08847178,0.0001475,53.2179,57.0301,94.0961,266.0199,0.00081156,0.00012654,0.0,0 STARLINK-4479,1 53415U 22097AD  23054.70635089  .00012654  00000-0  81156-3 0  9992,2 53415  53.2179  57.0301 0001475  94.0961 266.0199 15.08847178 31050,6917.858,95.437,540.744,538.703,0.0
53415.0,STARLINK-4479,PAYLOAD,2023-02-23 23:18:41,15.08848523,0.0001471,53.2175,55.8412,92.07,268.0461,0.00084436,0.00013179,0.0,0 STARLINK-4479,1 53415U 22097AD  23054.97131058  .00013179  00000-0  84436-3 0  9995,2 53415  53.2175  55.8412 0001471  92.0700 268.0461 15.08848523 30632,6917.854,95.437,540.737,538.702,0.0
53415.0,STARLINK-4479,PAYLOAD,2023-02-24 12:01:45,15.08864523,0.0001496,53.2179,53.4622,97.2992,262.817,0.00091074,0.00014246,0.0,0 STARLINK-4479,1 53415U 22097AD  23055.50122344  .00014246  00000-0  91074-3 0  9995,2 53415  53.2179  53.4622 0001496  97.2992 262.8170 15.08864523 31177,6917.805,95.436,540.705,538.636,0.0
53415.0,STARLINK-4479,PAYLOAD,2023-02-24 23:09:27,15.08842753,0.0001387,53.2178,51.3815,96.2889,263.8261,0.00023832,3.507e-05,0.0,0 STARLINK-4479,1 53415U 22097AD  23055.96490722  .00003507  00000-0  23832-3 0  9998,2 53415  53.2178  51.3815 0001387  96.2889 263.8261 15.08842753 30789,6917.872,95.437,540.696,538.777,0.0
53415.0,STARLINK-4479,PAYLOAD,2023-02-25 05:31:00,15.08842948,0.0001411,53.218,50.1909,113.8053,246.3088,0.00025645,3.796e-05,0.0,0 STARLINK-4479,1 53415U 22097AD  23056.22986740  .00003796  00000-0  25645-3 0  9992,2 53415  53.2180  50.1909 0001411 113.8053 246.3088 15.08842948 31285,6917.871,95.437,540.712,538.76,0.0
53415.0,STARLINK-4479,PAYLOAD,2023-02-25 16:38:43,15.08837729,0.0001463,53.2183,48.1114,81.9506,278.1652,0.00051062,7.847e-05,0.0,0 STARLINK-4479,1 53415U 22097AD  23056.69355335  .00007847  00000-0  51062-3 0  9996,2 53415  53.2183  48.1114 0001463  81.9506 278.1652 15.08837729 30895,6917.887,95.438,540.764,538.74,0.0
53415.0,STARLINK-4479,PAYLOAD,2023-02-26 08:32:34,15.08857527,0.0001378,53.2176,45.1366,86.2866,273.8283,0.0010097,0.00015826,0.0,0 STARLINK-4479,1 53415U 22097AD  23057.35595035  .00015826  00000-0  10097-2 0  9991,2 53415  53.2176  45.1366 0001378  86.2866 273.8283 15.08857527 31458,6917.827,95.436,540.645,538.739,0.0
53415.0,STARLINK-4479,PAYLOAD,2023-02-26 16:29:29,15.08846077,0.0001331,53.2178,43.6484,103.0828,257.0312,0.00056808,8.766e-05,0.0,0 STARLINK-4479,1 53415U 22097AD  23057.68715171  .00008766  00000-0  56808-3 0  9998,2 53415  53.2178  43.6484 0001331 103.0828 257.0312 15.08846077 31500,6917.862,95.437,540.648,538.806,0.0
53415.0,STARLINK-4479,PAYLOAD,2023-02-27 05:12:34,15.08847026,0.0001499,53.2168,41.27,97.9065,262.2098,0.00038883,5.907e-05,0.0,0 STARLINK-4479,1 53415U 22097AD  23058.21707149  .00005907  00000-0  38883-3 0  9991,2 53415  53.2168  41.2700 0001499  97.9065 262.2098 15.08847026 31125,6917.859,95.437,540.761,538.687,0.0
53415.0,STARLINK-4479,PAYLOAD,2023-02-27 09:58:44,15.08862641,0.0001633,53.2182,40.3793,97.8386,262.2792,0.00077173,0.00012023,0.0,0 STARLINK-4479,1 53415U 22097AD  23058.41578823  .00012023  00000-0  77173-3 0  9990,2 53415  53.2182  40.3793 0001633  97.8386 262.2792 15.08862641 31152,6917.811,95.436,540.806,538.547,0.0
53415.0,STARLINK-4479,PAYLOAD,2023-02-27 16:20:16,15.08873953,0.0001183,53.2201,39.193,81.8292,278.2834,0.001089,0.00017102,0.0,0 STARLINK-4479,1 53415U 22097AD  23058.68074425  .00017102  00000-0  10890-2 0  9993,2 53415  53.2201  39.1930 0001183  81.8292 278.2834 15.08873953 31659,6917.777,95.435,540.46,538.823,0.0
53415.0,STARLINK-4479,PAYLOAD,2023-02-28 05:03:20,15.08873352,5.5e-05,53.2223,36.8132,102.9826,257.1227,0.00074138,0.00011542,0.0,0 STARLINK-4479,1 53415U 22097AD  23059.21065376  .00011542  00000-0  74138-3 0  9996,2 53415  53.2223  36.8132 0000550 102.9826 257.1227 15.08873352 31279,6917.778,95.435,540.024,539.263,0.0
53415.0,STARLINK-4479,PAYLOAD,2023-02-28 09:49:28,15.08902825,0.000144,53.2185,35.9182,104.0055,256.1098,0.0015031,0.00023756,0.0,0 STARLINK-4479,1 53415U 22097AD  23059.40936283  .00023756  00000-0  15031-2 0  9997,2 53415  53.2185  35.9182 0001440 104.0055 256.1098 15.08902825 31764,6917.688,95.434,540.55,538.557,0.0
53415.0,STARLINK-4479,PAYLOAD,2023-03-01 04:54:09,15.08783455,0.0001062,53.2203,32.3546,88.5348,271.5766,0.0013301,0.00020911,0.0,0 STARLINK-4479,1 53415U 22097AD  23060.20427993  .00020911  00000-0  13301-2 0  9998,2 53415  53.2203  32.3546 0001062  88.5348 271.5766 15.08783455 31423,6918.053,95.441,540.653,539.184,0.0
53415.0,STARLINK-4479,PAYLOAD,2023-03-01 09:40:19,15.08792275,9.79e-05,53.2183,31.4596,78.8563,281.254,0.0017124,0.00027034,0.0,0 STARLINK-4479,1 53415U 22097AD  23060.40300726  .00027034  00000-0  17124-2 0  9994,2 53415  53.2183  31.4596 0000979  78.8563 281.2540 15.08792275 31914,6918.026,95.441,540.569,539.214,0.0
53415.0,STARLINK-4479,PAYLOAD,2023-03-02 03:09:34,15.08866222,8.4e-05,53.2175,28.189,82.6134,277.4954,0.0026542,0.00042237,0.0,0 STARLINK-4479,1 53415U 22097AD  23061.13164782  .00042237  00000-0  26542-2 0  9991,2 53415  53.2175  28.1890 0000840  82.6134 277.4954 15.08866222 31560,6917.8,95.436,540.246,539.084,0.0
53415.0,STARLINK-4479,PAYLOAD,2023-03-02 04:44:57,15.08871094,8.56e-05,53.2176,27.8913,80.9843,279.1246,0.002569,0.0004087,0.0,0 STARLINK-4479,1 53415U 22097AD  23061.19788650  .00040870  00000-0  25690-2 0  9997,2 53415  53.2176  27.8913 0000856  80.9843 279.1246 15.08871094 32037,6917.785,95.436,540.243,539.058,0.0
